#aV2013  1 16  0  0  0.00000000     288 DD+AD WGS84 FIT  NGA
## 1723 259200.00000000   300.00000000 56308 0.0000000000000
+   31     1  2  3  4  5  6  7  8  9 10 11 12 13 14 15 16 17
+         18 19 20 21 22 23 24 25 26 28 29 30 31 32  0  0  0
+          0  0  0  0  0  0  0  0  0  0  0  0  0  0  0  0  0
+          0  0  0  0  0  0  0  0  0  0  0  0  0  0  0  0  0
+          0  0  0  0  0  0  0  0  0  0  0  0  0  0  0  0  0
++         2  2  2  2  2  2  2  2  2  2  2  2  2  2  2  2  2
++         2  2  2  2  2  2  2  2  2  2  2  2  2  2  2  0  0
++         0  0  0  0  0  0  0  0  0  0  0  0  0  0  0  0  0
++         0  0  0  0  0  0  0  0  0  0  0  0  0  0  0  0  0
++         0  0  0  0  0  0  0  0  0  0  0  0  0  0  0  0  0
%c cc cc ccc ccc cccc cccc cccc cccc ccccc ccccc ccccc ccccc
%c cc cc ccc ccc cccc cccc cccc cccc ccccc ccccc ccccc ccccc
%f  0.0000000  0.000000000  0.00000000000  0.000000000000000
%f  0.0000000  0.000000000  0.00000000000  0.000000000000000
%i    0    0    0    0      0      0      0      0         0
%i    0    0    0    0      0      0      0      0         0
/*      NGA, ST. LOUIS,MO.                                  
/*   EPHEMERIS COMPUTED FROM  1 DAYS OF DATA
/*   EPOCHA SMOOTHER  
/* CCCCCCCCCCCCCCCCCCCCCCCCCCCCCCCCCCCCCCCCCCCCCCCCCCCCCCCCC
*  2013  1 16 11 45  0.00000000                                                 
P  1  20090.921230   9773.456291  14390.428404    293.752553                    
V  1   9405.362244  15823.524544 -23774.223969      0.023383                    
P  2 -13424.726899 -22752.706945   4894.703284    415.021424                    
V  2   6009.236648   2812.746777  30116.274413      0.012822                    
P  3  13428.436329  11835.684485 -20190.023213    155.723822                    
V  3 -23426.233884   7534.599957 -11219.538703      0.048837                    
P  4  -1371.221473 -20934.857416  15837.776480    106.551535                    
V  4  14723.620075  14933.785629  20940.292498      0.110978                    
P  5  -7004.228650 -17669.893184 -18523.423311   -378.856150                    
V  5  10653.764502 -21068.988281  16234.748450     -0.020488                    
P  6   6899.712625  14408.922493 -21156.437780    386.459544                    
V  6 -26582.817121   5422.808182  -4617.722832     -0.137345                    
P  7  14561.696726  -4914.128784 -21652.687796    169.562495                    
V  7  16013.502319  22370.796138   5404.858901      0.043973                    
P  8   6594.775481 -14909.562732 -20714.934529      4.035872                    
V  8  14508.055285  22323.454960 -11957.900478      0.003105                    
P  9 -17152.638558 -20058.860900   2059.836614    214.090277                    
V  9   -296.684541  -3911.902129 -32175.828871      0.026567                    
P 10   7305.493719 -24920.520515  -4671.645051    -66.381415                    
V 10   5578.296824  -3729.121213  30887.668223     -0.014227                    
P 11  23280.565329  11782.413605   5267.821380   -344.050948                    
V 11   3055.690072   8078.956147 -28910.605943     -0.038526                    
P 12 -15129.846570  -1731.387927  21717.188935    112.658555                    
V 12  10990.218151 -25307.212072   5826.709801      0.020518                    
P 13  25601.126091  -4593.909880  -5799.425552    152.099667                    
V 13   7198.442488   1711.801788  31050.994755     -0.028911                    
P 14 -12157.614341  13780.522771  19318.901385    219.617634                    
V 14 -24150.102218    214.811727 -15642.736173      0.004048                    
P 15 -22905.215800  -5643.788021 -12467.753173   -105.323261                    
V 15  15173.643449  -4938.967855 -25428.884175     -0.011550                    
P 16   4705.680020  18496.107508 -18329.935066   -251.815127                    
V 16 -11267.476685  20477.213064  18092.882671     -0.002758                    
P 17  10090.327288 -14676.053761  19827.107005     59.130893                    
V 17  24815.553209   -942.718726 -13703.755372     -0.036426                    
P 18 -15939.954102  18251.316731 -10075.795028    234.646646                    
V 18   1818.422727 -13925.710482 -27427.882297      0.018672                    
P 19  20680.609063   9229.258970 -14278.638215   -340.341581                    
V 19 -17761.565486   2434.596097 -23882.713759     -0.033250                    
P 20  16351.636498    432.590317  20740.042187     80.252104                    
V 20  -8393.160706  25546.873933   6106.808006      0.014460                    
P 21 -12637.851988   9139.694346 -20971.220330   -274.890898                    
V 21 -17066.208401 -22190.691497     53.573669     -0.022867                    
P 22  -9605.113432  24666.086681   1144.619410    155.920835                    
V 22  -4206.225905   -434.990466 -30989.680741      0.010354                    
P 23  26267.546182    669.144695   5159.342905    123.372182                    
V 23  -6084.904380   3219.119542  30540.309250     -0.037762                    
P 24 -20177.287364 -12851.860311  11568.448904      0.575347                    
V 24  -7070.507767 -13090.788111 -26851.435270     -0.006391                    
P 25 -17081.055236  11290.514465  16836.011582     63.262855                    
V 25   6628.445415 -20471.729275  20488.398306      0.026033                    
P 26 -12275.896067 -13155.143512 -20286.666615   -136.480605                    
V 26  24179.881045  -1473.838556 -13777.204894      0.137962                    
P 28  12466.665530 -23222.876274  -1624.286875    223.945394                    
V 28    907.122886   3528.472999 -32258.447893      0.035267                    
P 29 -25584.359769   5254.535038  -4659.412289    398.440943                    
V 29  -6177.298903  -2172.587602  31147.571617      0.038302                    
P 30   -625.672706  24901.132273  -9598.082759   -251.185852                    
V 30  -5710.082067  10469.350130  28561.301057      0.105667                    
P 31   5171.614815  22346.419763  13344.874999    297.865035                    
V 31 -11321.267169 -12420.119423  25807.688132      0.018938                    
P 32  12223.217874   9931.313184  21578.394367   -526.699182                    
V 32 -12696.360108  23871.875601  -3313.015066     -0.035179                    
EOF
